{
  "norad_id": 53390,
  "name": "STARLINK-4517",
  "history": [
    {
      "epoch": "2026-03-28T14:21:21.823200Z",
      "apogee_km": 540.7706581279899,
      "perigee_km": 538.7340315048759,
      "latitude_deg": 1.7682682583057813e-05,
      "longitude_deg": -2.1218351777401323,
      "height_km": 540.6291176453491,
      "semi_major_axis_km": 6917.889344816433,
      "eccentricity": 0.0001472,
      "inclination_deg": 53.2178,
      "raan_deg": 39.2354,
      "arg_perigee_deg": 88.9412,
      "mean_anomaly_deg": 271.1749,
      "mean_motion_rev_day": 15.0883707
    },
    {
      "epoch": "2026-03-29T03:04:27.667200Z",
      "apogee_km": 540.8265545830882,
      "perigee_km": 538.722125953379,
      "latitude_deg": -3.2084795071863286e-05,
      "longitude_deg": 164.20535611915236,
      "height_km": 540.475726949544,
      "semi_major_axis_km": 6917.911340268233,
      "eccentricity": 0.0001521,
      "inclination_deg": 53.2195,
      "raan_deg": 36.8593,
      "arg_perigee_deg": 79.3555,
      "mean_anomaly_deg": 280.7608,
      "mean_motion_rev_day": 15.08829874
    },
    {
      "epoch": "2026-03-30T02:55:12.948096Z",
      "apogee_km": 540.6683448670474,
      "perigee_km": 538.7159951186914,
      "latitude_deg": 2.161066219627605e-05,
      "longitude_deg": 161.07280944303955,
      "height_km": 540.6270559301872,
      "semi_major_axis_km": 6917.8291699928695,
      "eccentricity": 0.00014111,
      "inclination_deg": 53.2184,
      "raan_deg": 32.3947,
      "arg_perigee_deg": 92.2979,
      "mean_anomaly_deg": 267.8175,
      "mean_motion_rev_day": 15.08856757
    },
    {
      "epoch": "2026-03-30T20:24:28.416960Z",
      "apogee_km": 540.5182049786354,
      "perigee_km": 538.975101850905,
      "latitude_deg": 3.9104520535627755e-05,
      "longitude_deg": -105.22672176197858,
      "height_km": 540.442623818406,
      "semi_major_axis_km": 6917.8836534147695,
      "eccentricity": 0.00011153,
      "inclination_deg": 53.218,
      "raan_deg": 29.1278,
      "arg_perigee_deg": 74.9622,
      "mean_anomaly_deg": 285.1494,
      "mean_motion_rev_day": 15.08838932
    },
    {
      "epoch": "2026-03-31T12:18:20.480256Z",
      "apogee_km": 540.6191035174197,
      "perigee_km": 538.9305795951323,
      "latitude_deg": -3.273120988350658e-05,
      "longitude_deg": 12.675096065396732,
      "height_km": 540.5455146374754,
      "semi_major_axis_km": 6917.911841556276,
      "eccentricity": 0.00012204,
      "inclination_deg": 53.2185,
      "raan_deg": 26.1495,
      "arg_perigee_deg": 81.4606,
      "mean_anomaly_deg": 278.6524,
      "mean_motion_rev_day": 15.0882971
    },
    {
      "epoch": "2026-04-01T12:09:07.609248Z",
      "apogee_km": 540.6371798272394,
      "perigee_km": 538.8205482513431,
      "latitude_deg": -4.8888000762635814e-05,
      "longitude_deg": 9.541776697875672,
      "height_km": 540.6186740319133,
      "semi_major_axis_km": 6917.8658640392905,
      "eccentricity": 0.0001313,
      "inclination_deg": 53.2189,
      "raan_deg": 21.6919,
      "arg_perigee_deg": 89.6133,
      "mean_anomaly_deg": 270.5009,
      "mean_motion_rev_day": 15.08844752
    },
    {
      "epoch": "2026-04-02T18:21:26.677440Z",
      "apogee_km": 540.6638751037281,
      "perigee_km": 538.8168018543547,
      "latitude_deg": -1.1709225079169762e-05,
      "longitude_deg": -90.42703277479777,
      "height_km": 540.6399237161735,
      "semi_major_axis_km": 6917.877338479041,
      "eccentricity": 0.0001335,
      "inclination_deg": 53.22,
      "raan_deg": 16.043,
      "arg_perigee_deg": 90.2212,
      "mean_anomaly_deg": 269.8933,
      "mean_motion_rev_day": 15.08840998
    },
    {
      "epoch": "2026-04-02T23:07:35.903136Z",
      "apogee_km": 540.6494911304126,
      "perigee_km": 538.8213741613627,
      "latitude_deg": 3.552066896139862e-05,
      "longitude_deg": -163.0537032126188,
      "height_km": 540.6213802780595,
      "semi_major_axis_km": 6917.872432645888,
      "eccentricity": 0.00013213,
      "inclination_deg": 53.2196,
      "raan_deg": 15.1506,
      "arg_perigee_deg": 89.3705,
      "mean_anomaly_deg": 270.7439,
      "mean_motion_rev_day": 15.08842603
    },
    {
      "epoch": "2026-04-03T11:50:42.539424Z",
      "apogee_km": 540.8389485731168,
      "perigee_km": 538.7289826786,
      "latitude_deg": -5.394803817293033e-05,
      "longitude_deg": 3.266748408907393,
      "height_km": 540.5565893233157,
      "semi_major_axis_km": 6917.920965625858,
      "eccentricity": 0.0001525,
      "inclination_deg": 53.2186,
      "raan_deg": 12.7711,
      "arg_perigee_deg": 83.3047,
      "mean_anomaly_deg": 276.8118,
      "mean_motion_rev_day": 15.08826725
    },
    {
      "epoch": "2026-04-04T00:33:47.534976Z",
      "apogee_km": 540.7562602101052,
      "perigee_km": 538.7637675121732,
      "latitude_deg": 1.0187465366211899e-05,
      "longitude_deg": 169.5946693010278,
      "height_km": 540.5324508170927,
      "semi_major_axis_km": 6917.8970138611385,
      "eccentricity": 0.00014401,
      "inclination_deg": 53.2192,
      "raan_deg": 10.3921,
      "arg_perigee_deg": 82.8869,
      "mean_anomaly_deg": 277.2287,
      "mean_motion_rev_day": 15.08834561
    },
    {
      "epoch": "2026-04-05T11:32:14.878464Z",
      "apogee_km": 540.5196647315897,
      "perigee_km": 538.9079438512063,
      "latitude_deg": 3.9448829969142694e-05,
      "longitude_deg": -2.9992838353513456,
      "height_km": 540.932611726138,
      "semi_major_axis_km": 6917.850804291398,
      "eccentricity": 0.00011649,
      "inclination_deg": 53.2162,
      "raan_deg": 3.8484,
      "arg_perigee_deg": 113.6164,
      "mean_anomaly_deg": 246.4951,
      "mean_motion_rev_day": 15.08849679
    }
  ]
}